{"spkid": "50838043", "covariance": {"elements": [{"sigma": 3.70082093088407e-07, "name": "e", "units": null, "title": "eccentricity", "value": ".492656884960642", "label": "e"}, {"label": "q", "units": "au", "value": ".5494289268090087", "title": "perihelion distance", "name": "q", "sigma": 4.12516821185041e-07}, {"name": "tp", "sigma": 5.76794595451163e-05, "title": "time of perihelion passage", "value": "2457602.747283241494", "units": "TDB", "label": "tp"}, {"label": "node", "title": "longitude of the ascending node", "value": "306.8153590761786", "units": "deg", "sigma": 2.53758765086586e-05, "name": "om"}, {"label": "peri", "name": "w", "sigma": 3.69905794450532e-05, "value": "65.61415525820256", "title": "argument of perihelion", "units": "deg"}, {"sigma": 2.29739151883986e-05, "name": "i", "title": "inclination", "value": "19.93757340135715", "units": "deg", "label": "i"}], "data": [["1.369607556246963E-13", "-1.526564929374278E-13", "1.886369400055099E-11", "3.481891553669504E-12", "-9.828121912631019E-12", "5.51976842001541E-12"], ["-1.526564929374278E-13", "1.701701277606115E-13", "-2.110068768838134E-11", "-3.902956129964166E-12", "1.095020594416888E-11", "-6.155738459664554E-12"], ["1.886369400055099E-11", "-2.110068768838134E-11", "3.326920053416703E-9", "3.922081908703685E-10", "-1.030729300743276E-9", "6.376973494487654E-10"], ["3.481891553669504E-12", "-3.902956129964166E-12", "3.922081908703685E-10", "6.439351085826892E-10", "-8.045372948699641E-10", "4.715955032925364E-10"], ["-9.828121912631019E-12", "1.095020594416888E-11", "-1.030729300743276E-9", "-8.045372948699641E-10", "1.368302967680795E-9", "-7.555153436839811E-10"], ["5.51976842001541E-12", "-6.155738459664554E-12", "6.376973494487654E-10", "4.715955032925364E-10", "-7.555153436839811E-10", "5.278007790837299E-10"]], "labels": ["e", "q", "tp", "node", "peri", "i"], "epoch": "2457466.5"}, "elements": [{"label": "e", "name": "e", "sigma": "3.6105E-7", "title": "eccentricity", "value": ".4923224440642106", "units": null}, {"label": "a", "name": "a", "sigma": "4.4726E-8", "title": "semi-major axis", "value": "1.082258004484977", "units": "au"}, {"title": "perihelion distance", "value": ".5494380986088777", "units": "au", "sigma": "4.1246E-7", "name": "q", "label": "q"}, {"label": "i", "name": "i", "sigma": "2.3217E-5", "units": "deg", "value": "19.94489271455487", "title": "inclination; angle with respect to x-y ecliptic plane"}, {"label": "node", "units": "deg", "value": "306.7396374418234", "title": "longitude of the ascending node", "name": "om", "sigma": "2.5329E-5"}, {"units": "deg", "title": "argument of perihelion", "value": "65.72899374421264", "sigma": "3.7054E-5", "name": "w", "label": "peri"}, {"sigma": ".00010931", "name": "ma", "title": "mean anomaly", "value": "268.527108853522", "units": "deg", "label": "M"}, {"name": "tp", "sigma": ".00013129", "title": "time of perihelion passage", "value": "2461304.992360926425", "units": "TDB", "label": "tp"}, {"label": "period", "sigma": "2.5493E-5", "name": "per", "units": "d", "title": "sidereal orbital period", "value": "411.2393241542515"}, {"label": "n", "name": "n", "sigma": "5.4266E-8", "title": "mean motion", "value": ".8754026642281121", "units": "deg/d"}, {"name": "ad", "sigma": "6.6746E-8", "units": "au", "title": "aphelion distance", "value": "1.615077910361076", "label": "Q"}], "epoch": "2461200.5"}